*******************************************************************************
JPL/HORIZONS                2127 Tanya (1971 KB1)          2023-Sep-04 11:16:08
Rec #:    2127 (+COV) Soln.date: 2023-Aug-22_16:48:31   # obs: 8981 (1953-2023)
 
IAU76/J2000 helio. ecliptic osc. elements (au, days, deg., period=Julian yrs):
 
  EPOCH=  2457661.5 ! 2016-Sep-30.00 (TDB)         Residual RMS= .23743
   EC= .03223149733505699  QR= 3.108664306081152   TP= 2458092.9358402486
   OM= 106.4121255213321   W=  184.4380848882475   IN= 13.09020853408395
   A= 3.212198265929121    MA= 286.1387286218202   ADIST= 3.31573222577709
   PER= 5.75721            N= .171198738           ANGMOM= .030814627
   DAN= 3.3154             DDN= 3.10896            L= 290.7353284
   B= -1.0042056           MOID= 2.09153008        TP= 2017-Dec-05.4358402486
 
Asteroid physical parameters (km, seconds, rotational period in hours):
   GM= n.a.                RAD= 18.868             ROTPER= 7.854
   H= 11.23                G= .150                 B-V= n.a.
                           ALBEDO= .048            STYP= n.a.

ASTEROID comments: 
1: soln ref.= JPL#58, OCC=0
2: source=ORB
*******************************************************************************


*******************************************************************************
Ephemeris / API_USER Mon Sep  4 11:16:08 2023 Pasadena, USA      / Horizons
*******************************************************************************
Target body name: 2127 Tanya (1971 KB1)           {source: JPL#58}
Center body name: Solar System Barycenter (0)     {source: DE441}
Center-site name: BODY CENTER
*******************************************************************************
Start time      : A.D. 2023-Aug-12 00:00:00.0000 TDB
Stop  time      : A.D. 2023-Aug-13 00:00:00.0000 TDB
Step-size       : 2880 minutes
*******************************************************************************
Center geodetic : 0.0, 0.0, 0.0                   {E-lon(deg),Lat(deg),Alt(km)}
Center cylindric: 0.0, 0.0, 0.0                   {E-lon(deg),Dxy(km),Dz(km)}
Center radii    : (undefined)
Small perturbers: Yes                             {source: SB441-N16}
Output units    : KM-S
Calendar mode   : Mixed Julian/Gregorian
Output type     : GEOMETRIC cartesian states
Output format   : 2 (position and velocity)
Reference frame : Ecliptic of J2000.0
*******************************************************************************
Initial IAU76/J2000 heliocentric ecliptic osculating elements (au, days, deg.):
  EPOCH=  2457661.5 ! 2016-Sep-30.00 (TDB)         Residual RMS= .23743        
   EC= .03223149733505699  QR= 3.108664306081152   TP= 2458092.9358402486      
   OM= 106.4121255213321   W=  184.4380848882475   IN= 13.09020853408395       
  Equivalent ICRF heliocentric cartesian coordinates (au, au/d):
   X=-2.584214241195178E+00  Y=-1.863536023802307E+00  Z=-5.566483559179211E-02
  VX= 5.498313049536230E-03 VY=-6.994498437691522E-03 VZ=-3.801389944536463E-03
Asteroid physical parameters (km, seconds, rotational period in hours):        
   GM= n.a.                RAD= 18.868             ROTPER= 7.854               
   H= 11.23                G= .150                 B-V= n.a.                   
                           ALBEDO= .048            STYP= n.a.                  
*******************************************************************************
JDTDB
   X     Y     Z
   VX    VY    VZ
*******************************************************************************
$$SOE
2460168.500000000 = A.D. 2023-Aug-12 00:00:00.0000 TDB 
 X = 1.247829289207424E+08 Y =-4.482015957028403E+08 Z = 1.235565135452926E+06
 VX= 1.606240834305142E+01 VY= 4.584018689498933E+00 VZ=-3.884834104180827E+00
$$EOE
*******************************************************************************
 
TIME

  Barycentric Dynamical Time ("TDB" or T_eph) output was requested. This
continuous coordinate time is equivalent to the relativistic proper time
of a clock at rest in a reference frame co-moving with the solar system
barycenter but outside the system's gravity well. It is the independent
variable in the solar system relativistic equations of motion.

  TDB runs at a uniform rate of one SI second per second and is independent
of irregularities in Earth's rotation.
 
CALENDAR SYSTEM

  Mixed calendar mode was active such that calendar dates after AD 1582-Oct-15
(if any) are in the modern Gregorian system. Dates prior to 1582-Oct-5 (if any)
are in the Julian calendar system, which is automatically extended for dates
prior to its adoption on 45-Jan-1 BC.  The Julian calendar is useful for
matching historical dates. The Gregorian calendar more accurately corresponds
to the Earth's orbital motion and seasons. A "Gregorian-only" calendar mode is
available if such physical events are the primary interest.

REFERENCE FRAME AND COORDINATES

  Ecliptic at the standard reference epoch

    Reference epoch: J2000.0
    X-Y plane: adopted Earth orbital plane at the reference epoch
               Note: IAU76 obliquity of 84381.448 arcseconds wrt ICRF X-Y plane
    X-axis   : ICRF
    Z-axis   : perpendicular to the X-Y plane in the directional (+ or -) sense
               of Earth's north pole at the reference epoch.

  Symbol meaning:

    JDTDB    Julian Day Number, Barycentric Dynamical Time
      X      X-component of position vector (km)
      Y      Y-component of position vector (km)
      Z      Z-component of position vector (km)
      VX     X-component of velocity vector (km/sec)                           
      VY     Y-component of velocity vector (km/sec)                           
      VZ     Z-component of velocity vector (km/sec)                           

ABERRATIONS AND CORRECTIONS

 Geometric state vectors have NO corrections or aberrations applied.

Computations by ...

    Solar System Dynamics Group, Horizons On-Line Ephemeris System
    4800 Oak Grove Drive, Jet Propulsion Laboratory
    Pasadena, CA  91109   USA

    General site: https://ssd.jpl.nasa.gov/
    Mailing list: https://ssd.jpl.nasa.gov/email_list.html
    System news : https://ssd.jpl.nasa.gov/horizons/news.html
    User Guide  : https://ssd.jpl.nasa.gov/horizons/manual.html
    Connect     : browser        https://ssd.jpl.nasa.gov/horizons/app.html#/x
                  API            https://ssd-api.jpl.nasa.gov/doc/horizons.html
                  command-line   telnet ssd.jpl.nasa.gov 6775
                  e-mail/batch   https://ssd.jpl.nasa.gov/ftp/ssd/hrzn_batch.txt
                  scripts        https://ssd.jpl.nasa.gov/ftp/ssd/SCRIPTS
    Author      : Jon.D.Giorgini@jpl.nasa.gov
*******************************************************************************
